NORAD_CAT_ID,OBJECT_NAME,OBJECT_TYPE,EPOCH,MEAN_MOTION,ECCENTRICITY,INCLINATION,RA_OF_ASC_NODE,ARG_OF_PERICENTER,MEAN_ANOMALY,BSTAR,MEAN_MOTION_DOT,MEAN_MOTION_DDOT,TLE_LINE0,TLE_LINE1,TLE_LINE2,SEMIMAJOR_AXIS,PERIOD,APOGEE,PERIGEE,DECAYED
56787.0,STARLINK-6326,PAYLOAD,2023-08-27 20:52:30,15.69931346,0.0003196,69.9996,164.2102,262.2875,97.7958,2.8213e-05,3.182e-05,0.0,0 STARLINK-6326,1 56787U 23078W   23239.86979643  .00003182  00000-0  28213-4 0  9998,2 56787  69.9996 164.2102 0003196 262.2875  97.7958 15.69931346 13950,6737.23,91.724,361.249,356.942,0.0
56787.0,STARLINK-6326,PAYLOAD,2023-08-28 04:31:16,15.6992102,0.0003608,69.9996,163.3152,271.7329,88.3454,3.0498e-07,-1.76e-06,0.0,0 STARLINK-6326,1 56787U 23078W   23240.18838420 -.00000176  00000-0  30498-6 0  9993,2 56787  69.9996 163.3152 0003608 271.7329  88.3454 15.69921020 14262,6737.26,91.724,361.556,356.694,0.0
56787.0,STARLINK-6326,PAYLOAD,2023-08-28 21:20:32,15.69929502,0.0004009,69.9991,161.3451,268.3807,91.693,1.1136e-05,1.126e-05,0.0,0 STARLINK-6326,1 56787U 23078W   23240.88926388  .00001126  00000-0  11136-4 0  9992,2 56787  69.9991 161.3451 0004009 268.3807  91.6930 15.69929502 14119,6737.236,91.724,361.802,356.4,0.0
56787.0,STARLINK-6326,PAYLOAD,2023-08-29 04:59:18,15.69926093,0.0004022,69.9996,160.4483,262.7902,97.2836,8.4204e-06,8e-06,0.0,0 STARLINK-6326,1 56787U 23078W   23241.20784907  .00000800  00000-0  84204-5 0  9993,2 56787  69.9996 160.4483 0004022 262.7902  97.2836 15.69926093 14162,6737.245,91.724,361.82,356.401,0.0
56787.0,STARLINK-6326,PAYLOAD,2023-08-29 21:48:34,15.6992177,0.0003564,70.0008,158.4799,269.1528,90.926,2.5842e-05,2.895e-05,0.0,0 STARLINK-6326,1 56787U 23078W   23241.90873754  .00002895  00000-0  25842-4 0  9997,2 56787  70.0008 158.4799 0003564 269.1528  90.9260 15.69921770 14530,6737.258,91.724,361.524,356.722,0.0
56787.0,STARLINK-6326,PAYLOAD,2023-08-30 05:27:20,15.69929419,0.0003357,70.0003,157.5832,265.9547,94.1265,3.4928e-05,3.99e-05,0.0,0 STARLINK-6326,1 56787U 23078W   23242.22731771  .00003990  00000-0  34928-4 0  9997,2 56787  70.0003 157.5832 0003357 265.9547  94.1265 15.69929419 14582,6737.236,91.724,361.363,356.839,0.0
56787.0,STARLINK-6326,PAYLOAD,2023-08-31 07:26:43,15.70608053,0.0007916,70.0001,154.5372,278.6619,81.3681,0.0013911,0.00175729,0.0,0 STARLINK-6326,1 56787U 23078W   23243.31022641  .00175729  00000-0  13911-2 0  9994,2 56787  70.0001 154.5372 0007916 278.6619  81.3681 15.70608053 14751,6735.295,91.684,362.492,351.828,0.0
56787.0,STARLINK-6326,PAYLOAD,2023-08-31 20:00:01,15.69937371,0.0003323,70.0004,153.0666,266.1101,168.6188,-0.00015292,-0.00018569,0.0,0 STARLINK-6326,1 56787U 23078W   23243.83334491 -.00018569  00000-0 -15292-3 0  9995,2 56787  70.0004 153.0666 0003323 266.1101 168.6188 15.69937371 14836,6737.213,91.723,361.317,356.839,0.0
56787.0,STARLINK-6326,PAYLOAD,2023-08-31 22:00:01,15.69937112,0.0003333,70.0004,152.8323,267.7704,277.8612,-0.00020403,-0.00024687,0.0,0 STARLINK-6326,1 56787U 23078W   23243.91668981 -.00024687  00000-0 -20403-3 0  9996,2 56787  70.0004 152.8323 0003333 267.7704 277.8612 15.69937112  6020,6737.214,91.723,361.324,356.833,0.0
56787.0,STARLINK-6326,PAYLOAD,2023-09-01 10:58:29,15.69946854,0.0003516,69.9903,151.3165,265.051,95.0284,-5.6567e-05,-7.016e-05,0.0,0 STARLINK-6326,1 56787U 23078W   23244.45728847 -.00007016  00000-0 -56567-4 0  9992,2 56787  69.9903 151.3165 0003516 265.0510  95.0284 15.69946854 14939,6737.186,91.723,361.42,356.682,0.0
56787.0,STARLINK-6326,PAYLOAD,2023-09-02 03:47:46,15.69936239,0.0003233,69.9891,149.3455,264.8,95.2826,-3.0209e-05,-3.845e-05,0.0,0 STARLINK-6326,1 56787U 23078W   23245.15817460 -.00003845  00000-0 -30209-4 0  9991,2 56787  69.9891 149.3455 0003233 264.8000  95.2826 15.69936239 15044,6737.216,91.723,361.26,356.903,0.0
56787.0,STARLINK-6326,PAYLOAD,2023-09-02 19:05:17,15.69933264,0.0003149,69.9959,147.5512,269.0517,91.0318,2.9221e-05,3.303e-05,0.0,0 STARLINK-6326,1 56787U 23078W   23245.79534642  .00003303  00000-0  29221-4 0  9998,2 56787  69.9959 147.5512 0003149 269.0517  91.0318 15.69933264 14885,6737.225,91.724,361.211,356.968,0.0
56787.0,STARLINK-6326,PAYLOAD,2023-09-03 02:44:04,15.69904506,0.0002648,69.9985,146.6551,276.3154,83.774,-3.5038e-05,-4.419e-05,0.0,0 STARLINK-6326,1 56787U 23078W   23246.11394387 -.00004419  00000-0 -35038-4 0  9999,2 56787  69.9985 146.6551 0002648 276.3154  83.7740 15.69904506 15197,6737.307,91.725,360.956,357.388,0.0
56787.0,STARLINK-6326,PAYLOAD,2023-09-03 10:22:50,15.69910133,0.0002398,69.9983,145.7582,278.073,82.0194,-2.1106e-05,-2.747e-05,0.0,0 STARLINK-6326,1 56787U 23078W   23246.43252828 -.00002747  00000-0 -21106-4 0  9990,2 56787  69.9983 145.7582 0002398 278.0730  82.0194 15.69910133 14984,6737.291,91.725,360.772,357.541,0.0
56787.0,STARLINK-6326,PAYLOAD,2023-09-04 00:08:36,15.69915216,0.0003692,69.998,144.1462,268.5118,91.5654,-7.9798e-06,-1.172e-05,0.0,0 STARLINK-6326,1 56787U 23078W   23247.00597328 -.00001172  00000-0 -79798-5 0  9993,2 56787  69.9980 144.1462 0003692 268.5118  91.5654 15.69915216 15336,6737.277,91.725,361.629,356.654,0.0
56787.0,STARLINK-6326,PAYLOAD,2023-09-04 10:50:51,15.69933682,0.0003403,70.0002,142.8919,268.0696,92.011,4.3116e-05,4.977e-05,0.0,0 STARLINK-6326,1 56787U 23078W   23247.45198507  .00004977  00000-0  43116-4 0  9996,2 56787  70.0002 142.8919 0003403 268.0696  92.0110 15.69933682 15141,6737.224,91.724,361.381,356.796,0.0
56787.0,STARLINK-6326,PAYLOAD,2023-09-05 02:08:22,15.69930656,0.0003321,70.0001,141.1008,264.8108,95.2709,4.9002e-05,5.685e-05,0.0,0 STARLINK-6326,1 56787U 23078W   23248.08915439  .00005685  00000-0  49002-4 0  9994,2 56787  70.0001 141.1008 0003321 264.8108  95.2709 15.69930656 15509,6737.232,91.724,361.335,356.86,0.0
56787.0,STARLINK-6326,PAYLOAD,2023-09-05 03:40:08,15.69931981,0.0003355,69.9999,140.9216,264.6872,95.3941,5.0565e-05,5.873e-05,0.0,0 STARLINK-6326,1 56787U 23078W   23248.15287044  .00005873  00000-0  50565-4 0  9991,2 56787  69.9999 140.9216 0003355 264.6872  95.3941 15.69931981 15256,6737.229,91.724,361.354,356.833,0.0
56787.0,STARLINK-6326,PAYLOAD,2023-09-06 02:36:05,15.70543009,0.0016777,69.9992,138.2339,287.6178,72.3186,0.0018645,0.00238082,0.0,0 STARLINK-6326,1 56787U 23078W   23249.10840214  .00238082  00000-0  18645-2 0  9992,2 56787  69.9992 138.2339 0016777 287.6178  72.3186 15.70543009 15664,6735.481,91.688,368.646,346.046,0.0
56787.0,STARLINK-6326,PAYLOAD,2023-09-06 12:00:00,15.69859701,0.0003526,69.9987,137.1338,266.1643,145.297,0.00086949,0.0010538,0.0,0 STARLINK-6326,1 56787U 23078W   23249.50001157  .00105380  00000-0  86949-3 0  9998,2 56787  69.9987 137.1338 0003526 266.1643 145.2970 15.69859701 15727,6737.435,91.728,361.676,356.925,0.0
56787.0,STARLINK-6326,PAYLOAD,2023-09-06 14:00:01,15.69876426,0.0003541,69.9985,136.8996,265.1789,257.1026,0.00079764,0.0009662,0.0,0 STARLINK-6326,1 56787U 23078W   23249.58334491  .00096620  00000-0  79764-3 0  9999,2 56787  69.9985 136.8996 0003541 265.1789 257.1026 15.69876426  6041,6737.388,91.727,361.638,356.867,0.0
56787.0,STARLINK-6326,PAYLOAD,2023-09-06 16:00:00,15.69920048,0.0003545,69.9988,136.6653,265.253,7.8439,0.00022392,0.00026794,0.0,0 STARLINK-6326,1 56787U 23078W   23249.66667824  .00026794  00000-0  22392-3 0  9997,2 56787  69.9988 136.6653 0003545 265.2530   7.8439 15.69920048 15757,6737.263,91.724,361.516,356.739,0.0
56787.0,STARLINK-6326,PAYLOAD,2023-09-07 01:32:40,15.6994591,0.0003644,70.0003,135.5482,267.7433,92.3346,6.9915e-05,8.21e-05,0.0,0 STARLINK-6326,1 56787U 23078W   23250.06436054  .00008210  00000-0  69915-4 0  9998,2 56787  70.0003 135.5482 0003644 267.7433  92.3346 15.69945910 15813,6737.189,91.723,361.509,356.599,0.0
56787.0,STARLINK-6326,PAYLOAD,2023-09-07 15:18:27,15.69925186,0.0003495,69.9995,133.9361,267.1529,92.9267,2.2496e-05,2.493e-05,0.0,0 STARLINK-6326,1 56787U 23078W   23250.63782206  .00002493  00000-0  22496-4 0  9994,2 56787  69.9995 133.9361 0003495 267.1529  92.9267 15.69925186 15644,6737.248,91.724,361.468,356.758,0.0
56787.0,STARLINK-6326,PAYLOAD,2023-09-08 02:00:43,15.69925525,0.0003541,69.9985,132.6819,266.8255,93.2535,1.0946e-05,1.104e-05,0.0,0 STARLINK-6326,1 56787U 23078W   23251.08383965  .00001104  00000-0  10946-4 0  9998,2 56787  69.9985 132.6819 0003541 266.8255  93.2535 15.69925525 15718,6737.247,91.724,361.498,356.726,0.0
56787.0,STARLINK-6326,PAYLOAD,2023-09-08 18:50:00,15.6992694,0.0003652,69.9972,130.7125,268.9973,91.0804,1.973e-05,2.16e-05,0.0,0 STARLINK-6326,1 56787U 23078W   23251.78472320  .00002160  00000-0  19730-4 0  9992,2 56787  69.9972 130.7125 0003652 268.9973  91.0804 15.69926940 16084,6737.243,91.724,361.568,356.648,0.0
56787.0,STARLINK-6326,PAYLOAD,2023-09-09 02:28:46,15.6991847,0.0003458,69.9984,129.8139,266.0439,94.0361,4.5427e-06,3.33e-06,0.0,0 STARLINK-6326,1 56787U 23078W   23252.10331145  .00000333  00000-0  45427-5 0  9991,2 56787  69.9984 129.8139 0003458 266.0439  94.0361 15.69918470 16137,6737.267,91.725,361.462,356.803,0.0
56787.0,STARLINK-6326,PAYLOAD,2023-09-10 01:25:02,15.69918958,0.0003232,69.9995,127.1282,263.3409,96.7419,1.8609e-06,1.1e-07,0.0,0 STARLINK-6326,1 56787U 23078W   23253.05906225  .00000011  00000-0  18609-5 0  9998,2 56787  69.9995 127.1282 0003232 263.3409  96.7419 15.69918958 16028,6737.266,91.724,361.308,356.953,0.0
56787.0,STARLINK-6326,PAYLOAD,2023-09-10 18:14:19,15.69927244,0.000322,69.9998,125.1581,261.3321,98.751,4.0451e-05,4.654e-05,0.0,0 STARLINK-6326,1 56787U 23078W   23253.75994327  .00004654  00000-0  40451-4 0  9991,2 56787  69.9998 125.1581 0003220 261.3321  98.7510 15.69927244 16391,6737.242,91.724,361.277,356.938,0.0
56787.0,STARLINK-6326,PAYLOAD,2023-09-11 01:53:04,15.69935134,0.0003243,69.9999,124.2622,261.7416,98.3412,5.7735e-05,6.738e-05,0.0,0 STARLINK-6326,1 56787U 23078W   23254.07852443  .00006738  00000-0  57735-4 0  9997,2 56787  69.9999 124.2622 0003243 261.7416  98.3412 15.69935134 16183,6737.22,91.724,361.269,356.9,0.0
